Country,Continent,Station_Name,River_Name,River_Basin,GloFAS_ID,Provider,Provider_ID,Catchment_Area_Provided_km2,Catchment_Area_GloFAS_km2,LAT_Provided,LON_Provided,LAT_GloFAS,LON_GloFAS,CODE_H3
France,Europe,Nouatre,Vienne,Loire,G0518,GRDC,6123400,19920,20690,47.0488,0.5444,47.05,0.55,L700061001
France,Europe,Chancy-Aux-Ripes,Rhone,Rhone,G0554,GRDC,6939050,10323,10534,46.153,5.9707,46.15,5.95,EN_SUISSE
France,Europe,Sault-Brenaz,Rhone,Rhone,G0565,GRDC,6139391,15380,15442,45.86,5.4,45.75,5.45,V163002003 
France,Europe,Olmeta-Di-Tuda-Lancone,Bevineo,,G0664,GRDC,6150300,,1203,42.6023,9.3794,42.55,9.35,Y731000301
France,Europe,La-Durance-A-Saint-Paul-Les-Durance-Jouques-Cadarache,Durance,Rhone,G1584,EFAS/SCHAPI,,11700,11687,43.71,5.74,43.75,5.75,X300101301
France,Europe,Le-Rhone-A-Beaucaire,Rhone,Rhone,G1585,EFAS/Banque-Hydro,,95590,95189,43.8,4.65,43.95,4.75,V720000501
France,Europe,La-Garonne-A-Verdun-Sur-Garonne,Garonne,Garonne,G1586,EFAS/SCHAPI,,13730,14370,43.83,1.25,43.85,1.25,O262002002
France,Europe,La-Garonne-A-Tonneins,Garonne,Garonne,G1587,EFAS/Banque-Hydro,,51500,50483,44.4,0.28,44.35,0.25,O900001002
France,Europe,Le-Rhone-A-Viviers,Rhone,Rhone,G1588,EFAS/Banque-Hydro,,70900,71619,44.48,4.7,44.55,4.75,V453001002
France,Europe,L-Isere-A-Beaumont-Monteux,Isere,Rhone,G1589,EFAS/Banque-Hydro,,11800,12220,45.03,4.96,45.05,4.95,W354001002
France,Europe,La-Saone-A-Couzon-Au-Mont-D-Or,Rhone,Rhone,G1590,EFAS/SCHAPI,,29908,29586,45.79,4.84,45.85,4.85,U471001003
France,Europe,Le-Rhone-A-Lyon-Perrache,Rhone,Rhone,G1591,EFAS/Banque-Hydro,,20300,20322,45.79,4.91,45.85,5.05,V300002002
France,Europe,L-Allier-A-Moulins,Allier,Loire,G1592,EFAS/Banque-Hydro,,12980,13108,46.58,3.34,46.45,3.35,K345081001
France,Europe,La-Loire-A-Nevers,Loire,Loire,G1593,EFAS/Banque-Hydro,,17570,18634,46.98,3.17,46.95,3.15,K193001010
France,Europe,La-Saone-A-Pagny-La-Ville-Lechatelet,Saone,Rhone,G1594,EFAS/Banque-Hydro,,11673,11477,47.07,5.15,47.05,5.15,U142001001
France,Europe,La-Loire-Totale-A-Nantes-Saint-Felix,Loire,Loire,G1595,EFAS/Banque-Hydro,,111570,114442,47.21,-1.54,47.25,-1.45,M800001020
France,Europe,La-Loire-A-Saumur,Loire,Loire,G1596,EFAS/Banque-Hydro,,81200,83037,47.26,-0.01,47.25,-0.05,L800001020
France,Europe,La-Loire-A-Blois,Loire,Loire,G1597,EFAS/Banque-Hydro,,38320,39421,47.59,1.34,47.55,1.35,K447001001
France,Europe,L-Yonne-A-Courlon-Sur-Yonne,Yonne,Seine,G1598,EFAS/Banque-Hydro,,10700,10942,48.32,3.15,48.35,3.15,F359000103
France,Europe,La-Marne-A-Gournay-Sur-Marne,Marne,Seine,G1599,EFAS/Banque-Hydro,,12660,12908,48.86,2.57,48.85,2.55,F664000104
France,Europe,La-Seine-A-Poissy,Seine,Seine,G1600,EFAS/Banque-Hydro,,61820,62939,48.94,2.05,48.95,2.05,H300000201
France,Europe,La-Meuse-A-Chooz-Ile-Graviat,Meuse-Mosa,Rhine,G1601,EFAS/Banque-Hydro,,10120,10950,50.11,4.83,50.15,4.85,B720000002
France,Europe,,,,G3694,Synthetic,,,22752,,,47.45,-0.65,?
France,Europe,,,,G3695,Synthetic,,,88528,,,47.45,-0.55,?
France,Europe,,,,G3699,Synthetic,,,13941,,,47.35,1.05,?
France,Europe,,,,G3716,Synthetic,,,10542,,,46.85,0.55,?
France,Europe,,,,G3851,Synthetic,,,14315,,,43.85,4.95,?
